[{"COMMENT":"GENERATED VIA SPACETRACK.ORG API","ORIGINATOR":"18 SPCS","NORAD_CAT_ID":"43477","OBJECT_NAME":"GRACE-FO 2","OBJECT_TYPE":"PAYLOAD","CLASSIFICATION_TYPE":"U","INTLDES":"18047B","EPOCH":"2023-09-27 11:33:50","EPOCH_MICROSECONDS":"712480","MEAN_MOTION":"15.26891226","ECCENTRICITY":"0.001415","INCLINATION":"88.9899","RA_OF_ASC_NODE":"335.2819","ARG_OF_PERICENTER":"16.0839","MEAN_ANOMALY":"344.0857","EPHEMERIS_TYPE":"0","ELEMENT_SET_NO":"999","REV_AT_EPOCH":"29760","BSTAR":"0.00017322","MEAN_MOTION_DOT":"0.00004613","MEAN_MOTION_DDOT":"0","FILE":"4018203","TLE_LINE0":"0 GRACE-FO 2","TLE_LINE1":"1 43477U 18047B   23270.48183695  .00004613  00000-0  17322-3 0  9995","TLE_LINE2":"2 43477  88.9899 335.2819 0014150  16.0839 344.0857 15.26891226297604","OBJECT_ID":"2018-047B","OBJECT_NUMBER":"43477","SEMIMAJOR_AXIS":"6863.249","PERIOD":"94.309","APOGEE":"494.826","PERIGEE":"475.403","DECAYED":"0"},{"COMMENT":"GENERATED VIA SPACETRACK.ORG API","ORIGINATOR":"18 SPCS","NORAD_CAT_ID":"43477","OBJECT_NAME":"GRACE-FO 2","OBJECT_TYPE":"PAYLOAD","CLASSIFICATION_TYPE":"U","INTLDES":"18047B","EPOCH":"2023-09-28 03:17:35","EPOCH_MICROSECONDS":"672352","MEAN_MOTION":"15.26897206","ECCENTRICITY":"0.0014028","INCLINATION":"88.9897","RA_OF_ASC_NODE":"335.193","ARG_OF_PERICENTER":"13.6811","MEAN_ANOMALY":"346.4815","EPHEMERIS_TYPE":"0","ELEMENT_SET_NO":"999","REV_AT_EPOCH":"29770","BSTAR":"0.00016964","MEAN_MOTION_DOT":"0.00004519","MEAN_MOTION_DDOT":"0","FILE":"4018525","TLE_LINE0":"0 GRACE-FO 2","TLE_LINE1":"1 43477U 18047B   23271.13721843  .00004519  00000-0  16964-3 0  9997","TLE_LINE2":"2 43477  88.9897 335.1930 0014028  13.6811 346.4815 15.26897206297707","OBJECT_ID":"2018-047B","OBJECT_NUMBER":"43477","SEMIMAJOR_AXIS":"6863.231","PERIOD":"94.309","APOGEE":"494.724","PERIGEE":"475.469","DECAYED":"0"},{"COMMENT":"GENERATED VIA SPACETRACK.ORG API","ORIGINATOR":"18 SPCS","NORAD_CAT_ID":"43477","OBJECT_NAME":"GRACE-FO 2","OBJECT_TYPE":"PAYLOAD","CLASSIFICATION_TYPE":"U","INTLDES":"18047B","EPOCH":"2023-09-28 14:18:13","EPOCH_MICROSECONDS":"24512","MEAN_MOTION":"15.2690088","ECCENTRICITY":"0.0013936","INCLINATION":"88.9896","RA_OF_ASC_NODE":"335.1307","ARG_OF_PERICENTER":"11.974","MEAN_ANOMALY":"348.1837","EPHEMERIS_TYPE":"0","ELEMENT_SET_NO":"999","REV_AT_EPOCH":"29777","BSTAR":"0.00016267","MEAN_MOTION_DOT":"0.00004335","MEAN_MOTION_DDOT":"0","FILE":"4019158","TLE_LINE0":"0 GRACE-FO 2","TLE_LINE1":"1 43477U 18047B   23271.59598408  .00004335  00000-0  16267-3 0  9998","TLE_LINE2":"2 43477  88.9896 335.1307 0013936  11.9740 348.1837 15.26900880297776","OBJECT_ID":"2018-047B","OBJECT_NUMBER":"43477","SEMIMAJOR_AXIS":"6863.220","PERIOD":"94.309","APOGEE":"494.650","PERIGEE":"475.521","DECAYED":"0"},{"COMMENT":"GENERATED VIA SPACETRACK.ORG API","ORIGINATOR":"18 SPCS","NORAD_CAT_ID":"43477","OBJECT_NAME":"GRACE-FO 2","OBJECT_TYPE":"PAYLOAD","CLASSIFICATION_TYPE":"U","INTLDES":"18047B","EPOCH":"2023-09-28 22:10:05","EPOCH_MICROSECONDS":"358432","MEAN_MOTION":"15.26903446","ECCENTRICITY":"0.0013885","INCLINATION":"88.9895","RA_OF_ASC_NODE":"335.0863","ARG_OF_PERICENTER":"10.7368","MEAN_ANOMALY":"349.4175","EPHEMERIS_TYPE":"0","ELEMENT_SET_NO":"999","REV_AT_EPOCH":"29782","BSTAR":"0.00015882","MEAN_MOTION_DOT":"0.00004233","MEAN_MOTION_DDOT":"0","FILE":"4019377","TLE_LINE0":"0 GRACE-FO 2","TLE_LINE1":"1 43477U 18047B   23271.92367313  .00004233  00000-0  15882-3 0  9993","TLE_LINE2":"2 43477  88.9895 335.0863 0013885  10.7368 349.4175 15.26903446297823","OBJECT_ID":"2018-047B","OBJECT_NUMBER":"43477","SEMIMAJOR_AXIS":"6863.213","PERIOD":"94.309","APOGEE":"494.607","PERIGEE":"475.548","DECAYED":"0"},{"COMMENT":"GENERATED VIA SPACETRACK.ORG API","ORIGINATOR":"18 SPCS","NORAD_CAT_ID":"43477","OBJECT_NAME":"GRACE-FO 2","OBJECT_TYPE":"PAYLOAD","CLASSIFICATION_TYPE":"U","INTLDES":"18047B","EPOCH":"2023-09-29 12:19:27","EPOCH_MICROSECONDS":"404832","MEAN_MOTION":"15.26909115","ECCENTRICITY":"0.0013766","INCLINATION":"88.9893","RA_OF_ASC_NODE":"335.0062","ARG_OF_PERICENTER":"8.5081","MEAN_ANOMALY":"351.6399","EPHEMERIS_TYPE":"0","ELEMENT_SET_NO":"999","REV_AT_EPOCH":"29791","BSTAR":"0.00016607","MEAN_MOTION_DOT":"0.00004426","MEAN_MOTION_DDOT":"0","FILE":"4019675","TLE_LINE0":"0 GRACE-FO 2","TLE_LINE1":"1 43477U 18047B   23272.51351163  .00004426  00000-0  16607-3 0  9995","TLE_LINE2":"2 43477  88.9893 335.0062 0013766   8.5081 351.6399 15.26909115297919","OBJECT_ID":"2018-047B","OBJECT_NUMBER":"43477","SEMIMAJOR_AXIS":"6863.196","PERIOD":"94.308","APOGEE":"494.509","PERIGEE":"475.613","DECAYED":"0"},{"COMMENT":"GENERATED VIA SPACETRACK.ORG API","ORIGINATOR":"18 SPCS","NORAD_CAT_ID":"43477","OBJECT_NAME":"GRACE-FO 2","OBJECT_TYPE":"PAYLOAD","CLASSIFICATION_TYPE":"U","INTLDES":"18047B","EPOCH":"2023-09-29 13:53:49","EPOCH_MICROSECONDS":"843968","MEAN_MOTION":"15.26909706","ECCENTRICITY":"0.0013754","INCLINATION":"88.9893","RA_OF_ASC_NODE":"334.9973","ARG_OF_PERICENTER":"8.2586","MEAN_ANOMALY":"351.8887","EPHEMERIS_TYPE":"0","ELEMENT_SET_NO":"999","REV_AT_EPOCH":"29792","BSTAR":"0.00016528","MEAN_MOTION_DOT":"0.00004405","MEAN_MOTION_DDOT":"0","FILE":"4020020","TLE_LINE0":"0 GRACE-FO 2","TLE_LINE1":"1 43477U 18047B   23272.57904912  .00004405  00000-0  16528-3 0  9996","TLE_LINE2":"2 43477  88.9893 334.9973 0013754   8.2586 351.8887 15.26909706297923","OBJECT_ID":"2018-047B","OBJECT_NUMBER":"43477","SEMIMAJOR_AXIS":"6863.194","PERIOD":"94.308","APOGEE":"494.499","PERIGEE":"475.619","DECAYED":"0"},{"COMMENT":"GENERATED VIA SPACETRACK.ORG API","ORIGINATOR":"18 SPCS","NORAD_CAT_ID":"43477","OBJECT_NAME":"GRACE-FO 2","OBJECT_TYPE":"PAYLOAD","CLASSIFICATION_TYPE":"U","INTLDES":"18047B","EPOCH":"2023-09-30 05:37:34","EPOCH_MICROSECONDS":"109184","MEAN_MOTION":"15.26915124","ECCENTRICITY":"0.001361","INCLINATION":"88.9889","RA_OF_ASC_NODE":"334.9083","ARG_OF_PERICENTER":"5.8247","MEAN_ANOMALY":"354.3158","EPHEMERIS_TYPE":"0","ELEMENT_SET_NO":"999","REV_AT_EPOCH":"29802","BSTAR":"0.00015534","MEAN_MOTION_DOT":"0.00004142","MEAN_MOTION_DDOT":"0","FILE":"4020886","TLE_LINE0":"0 GRACE-FO 2","TLE_LINE1":"1 43477U 18047B   23273.23442256  .00004142  00000-0  15534-3 0  9992","TLE_LINE2":"2 43477  88.9889 334.9083 0013610   5.8247 354.3158 15.26915124298020","OBJECT_ID":"2018-047B","OBJECT_NUMBER":"43477","SEMIMAJOR_AXIS":"6863.178","PERIOD":"94.308","APOGEE":"494.383","PERIGEE":"475.702","DECAYED":"0"},{"COMMENT":"GENERATED VIA SPACETRACK.ORG API","ORIGINATOR":"18 SPCS","NORAD_CAT_ID":"43477","OBJECT_NAME":"GRACE-FO 2","OBJECT_TYPE":"PAYLOAD","CLASSIFICATION_TYPE":"U","INTLDES":"18047B","EPOCH":"2023-09-30 16:38:10","EPOCH_MICROSECONDS":"981824","MEAN_MOTION":"15.26918862","ECCENTRICITY":"0.0013514","INCLINATION":"88.9887","RA_OF_ASC_NODE":"334.8459","ARG_OF_PERICENTER":"4.0964","MEAN_ANOMALY":"356.0394","EPHEMERIS_TYPE":"0","ELEMENT_SET_NO":"999","REV_AT_EPOCH":"29809","BSTAR":"0.00015184","MEAN_MOTION_DOT":"0.0000405","MEAN_MOTION_DDOT":"0","FILE":"4021051","TLE_LINE0":"0 GRACE-FO 2","TLE_LINE1":"1 43477U 18047B   23273.69318266  .00004050  00000-0  15184-3 0  9994","TLE_LINE2":"2 43477  88.9887 334.8459 0013514   4.0964 356.0394 15.26918862298094","OBJECT_ID":"2018-047B","OBJECT_NUMBER":"43477","SEMIMAJOR_AXIS":"6863.166","PERIOD":"94.308","APOGEE":"494.306","PERIGEE":"475.757","DECAYED":"0"},{"COMMENT":"GENERATED VIA SPACETRACK.ORG API","ORIGINATOR":"18 SPCS","NORAD_CAT_ID":"43477","OBJECT_NAME":"GRACE-FO 2","OBJECT_TYPE":"PAYLOAD","CLASSIFICATION_TYPE":"U","INTLDES":"18047B","EPOCH":"2023-10-01 13:05:01","EPOCH_MICROSECONDS":"963104","MEAN_MOTION":"15.26928266","ECCENTRICITY":"0.0013339","INCLINATION":"88.9884","RA_OF_ASC_NODE":"334.7302","ARG_OF_PERICENTER":"0.798","MEAN_ANOMALY":"359.3288","EPHEMERIS_TYPE":"0","ELEMENT_SET_NO":"999","REV_AT_EPOCH":"29822","BSTAR":"0.00017244","MEAN_MOTION_DOT":"0.00004596","MEAN_MOTION_DDOT":"0","FILE":"4021853","TLE_LINE0":"0 GRACE-FO 2","TLE_LINE1":"1 43477U 18047B   23274.54516161  .00004596  00000-0  17244-3 0  9997","TLE_LINE2":"2 43477  88.9884 334.7302 0013339   0.7980 359.3288 15.26928266298225","OBJECT_ID":"2018-047B","OBJECT_NUMBER":"43477","SEMIMAJOR_AXIS":"6863.138","PERIOD":"94.307","APOGEE":"494.158","PERIGEE":"475.849","DECAYED":"0"},{"COMMENT":"GENERATED VIA SPACETRACK.ORG API","ORIGINATOR":"18 SPCS","NORAD_CAT_ID":"43477","OBJECT_NAME":"GRACE-FO 2","OBJECT_TYPE":"PAYLOAD","CLASSIFICATION_TYPE":"U","INTLDES":"18047B","EPOCH":"2023-10-01 17:48:09","EPOCH_MICROSECONDS":"64512","MEAN_MOTION":"15.26930109","ECCENTRICITY":"0.0013301","INCLINATION":"88.9883","RA_OF_ASC_NODE":"334.7034","ARG_OF_PERICENTER":"0.0635","MEAN_ANOMALY":"0.0613","EPHEMERIS_TYPE":"0","ELEMENT_SET_NO":"999","REV_AT_EPOCH":"29825","BSTAR":"0.00017289","MEAN_MOTION_DOT":"0.00004608","MEAN_MOTION_DDOT":"0","FILE":"4021951","TLE_LINE0":"0 GRACE-FO 2","TLE_LINE1":"1 43477U 18047B   23274.74177158  .00004608  00000-0  17289-3 0  9991","TLE_LINE2":"2 43477  88.9883 334.7034 0013301   0.0635   0.0613 15.26930109298259","OBJECT_ID":"2018-047B","OBJECT_NUMBER":"43477","SEMIMAJOR_AXIS":"6863.133","PERIOD":"94.307","APOGEE":"494.126","PERIGEE":"475.869","DECAYED":"0"}]